{
 "type": "FeatureCollection",
 "features": [
  {
   "type": "Feature",
   "geometry": {
    "type": "LineString",
    "coordinates": [
     [
      -83.0265518,
      42.3331813
     ],
     [
      -83.0265518,
      42.3331813
     ],
     [
      -83.0267398,
      42.3334906
     ],
     [
      -83.0268811,
      42.3337917
     ],
     [
      -83.0269133,
      42.3338389
     ],
     [
      -83.0269528,
      42.3338846
     ],
     [
      -83.0271115,
      42.3340444
     ],
     [
      -83.0271256,
      42.3340646
     ],
     [
      -83.0271301,
      42.3340887
     ],
     [
      -83.027131,
      42.3341918
     ],
     [
      -83.0271364,
      42.3342188
     ],
     [
      -83.0271492,
      42.3342374
     ],
     [
      -83.0272003,
      42.3342885
     ],
     [
      -83.0274628,
      42.3346044
     ],
     [
      -83.0274965,
      42.3346358
     ],
     [
      -83.0275765,
      42.3347102
     ],
     [
      -83.0276105,
      42.3347418
     ],
     [
      -83.0276402,
      42.3347985
     ],
     [
      -83.0276632,
      42.3348924
     ],
     [
      -83.0276771,
      42.3349491
     ],
     [
      -83.0278802,
      42.3352972
     ],
     [
      -83.0279247,
      42.3353651
     ],
     [
      -83.028751,
      42.3366166
     ],
     [
      -83.0293348,
      42.3375052
     ],
     [
      -83.0303061,
      42.3389836
     ],
     [
      -83.0327443,
      42.3426697
     ],
     [
      -83.0341144,
      42.3447467
     ],
     [
      -83.0342029,
      42.3448757
     ],
     [
      -83.0342842,
      42.3450072
     ],
     [
      -83.0343582,
      42.3451411
     ],
     [
      -83.0344247,
      42.3452771
     ],
     [
      -83.0345526,
      42.3454718
     ],
     [
      -83.0346873,
      42.345664
     ],
     [
      -83.0348286,
      42.3458535
     ],
     [
      -83.0349764,
      42.3460403
     ],
     [
      -83.0351308,
      42.3462241
     ],
     [
      -83.0352914,
      42.346405
     ],
     [
      -83.0354583,
      42.3465827
     ],
     [
      -83.0356642,
      42.3468521
     ],
     [
      -83.038231,
      42.3507611
     ],
     [
      -83.0405137,
      42.3541944
     ],
     [
      -83.0405457,
      42.3541822
     ],
     [
      -83.0406508,
      42.3543412
     ]
    ]
   },
   "properties": {
    "segment_id": "2",
    "phase": "open",
    "phase_label": "Open",
    "type": "off_street_trail",
    "type_label": "Off-street trail"
   }
  },
  {
   "type": "Feature",
   "geometry": {
    "type": "LineString",
    "coordinates": [
     [
      -83.0406508,
      42.3543412
     ],
     [
      -83.0439318,
      42.359356
     ],
     [
      -83.0453188,
      42.3614566
     ],
     [
      -83.0467342,
      42.3635362
     ]
    ]
   },
   "properties": {
    "segment_id": "3",
    "phase": "funded",
    "phase_label": "Funded",
    "type": "adjacent",
    "type_label": "Adjacent path"
   }
  },
  {
   "type": "Feature",
   "geometry": {
    "type": "LineString",
    "coordinates": [
     [
      -83.0507786,
      42.3861472
     ],
     [
      -83.0557878,
      42.3937036
     ]
    ]
   },
   "properties": {
    "segment_id": "5",
    "phase": "open",
    "phase_label": "Open",
    "type": "on_street_greenway",
    "type_label": "On-street greenway"
   }
  },
  {
   "type": "Feature",
   "geometry": {
    "type": "LineString",
    "coordinates": [
     [
      -83.0557878,
      42.3937036
     ],
     [
      -83.0562527,
      42.3935333
     ],
     [
      -83.0602684,
      42.3996529
     ],
     [
      -83.0598472,
      42.3998175
     ]
    ]
   },
   "properties": {
    "segment_id": "6",
    "phase": "unfunded",
    "phase_label": "Unfunded",
    "type": "alley",
    "type_label": "Alley"
   }
  },
  {
   "type": "Feature",
   "geometry": {
    "type": "LineString",
    "coordinates": [
     [
      -83.0642975,
      42.4063473
     ],
     [
      -83.0726063,
      42.4185355
     ]
    ]
   },
   "properties": {
    "segment_id": "7",
    "phase": "open",
    "phase_label": "Open",
    "type": "on_street_greenway",
    "type_label": "On-street greenway"
   }
  },
  {
   "type": "Feature",
   "geometry": {
    "type": "LineString",
    "coordinates": [
     [
      -83.0726063,
      42.4185355
     ],
     [
      -83.0750647,
      42.4185509
     ],
     [
      -83.0818601,
      42.4160491
     ]
    ]
   },
   "properties": {
    "segment_id": "8",
    "phase": "under_construction",
    "phase_label": "Under construction",
    "type": "off_street_trail",
    "type_label": "Off-street trail"
   }
  },
  {
   "type": "Feature",
   "geometry": {
    "type": "LineString",
    "coordinates": [
     [
      -83.0818601,
      42.4160491
     ],
     [
      -83.0825476,
      42.4158393
     ],
     [
      -83.084506,
      42.4151295
     ],
     [
      -83.0859442,
      42.4148901
     ],
     [
      -83.0867454,
      42.4149623
     ],
     [
      -83.087054,
      42.4149741
     ],
     [
      -83.0896134,
      42.4151859
     ],
     [
      -83.0897805,
      42.4151982
     ],
     [
      -83.0899482,
      42.4152041
     ],
     [
      -83.0901162,
      42.4152034
     ],
     [
      -83.0902838,
      42.4151963
     ],
     [
      -83.0904507,
      42.4151827
     ],
     [
      -83.0906164,
      42.4151626
     ],
     [
      -83.0907805,
      42.4151362
     ],
     [
      -83.0909425,
      42.4151034
     ],
     [
      -83.091102,
      42.4150645
     ],
     [
      -83.0912585,
      42.4150194
     ],
     [
      -83.0914116,
      42.4149683
     ],
     [
      -83.0921275,
      42.4147084
     ],
     [
      -83.1010111,
      42.4114325
     ]
    ]
   },
   "properties": {
    "segment_id": "10",
    "phase": "funded",
    "phase_label": "Funded",
    "type": "off_street_trail",
    "type_label": "Off-street trail"
   }
  },
  {
   "type": "Feature",
   "geometry": {
    "type": "LineString",
    "coordinates": [
     [
      -83.1010371,
      42.4114229
     ],
     [
      -83.1034203,
      42.4105292
     ],
     [
      -83.103635,
      42.4104482
     ],
     [
      -83.1038455,
      42.4103615
     ],
     [
      -83.1040516,
      42.410269
     ],
     [
      -83.104253,
      42.410171
     ],
     [
      -83.1044493,
      42.4100676
     ],
     [
      -83.1046064,
      42.4100011
     ],
     [
      -83.1047592,
      42.4099293
     ],
     [
      -83.1049073,
      42.4098523
     ],
     [
      -83.1050504,
      42.4097703
     ],
     [
      -83.1051882,
      42.4096834
     ],
     [
      -83.1053205,
      42.4095919
     ],
     [
      -83.1054468,
      42.4094959
     ],
     [
      -83.105567,
      42.4093957
     ],
     [
      -83.1056807,
      42.4092914
     ],
     [
      -83.1057878,
      42.4091834
     ],
     [
      -83.106434,
      42.4084513
     ],
     [
      -83.1069687,
      42.4078166
     ],
     [
      -83.1070859,
      42.4076735
     ],
     [
      -83.1072103,
      42.4075338
     ],
     [
      -83.1073418,
      42.4073976
     ],
     [
      -83.10748,
      42.4072652
     ],
     [
      -83.1076248,
      42.4071367
     ],
     [
      -83.1077761,
      42.4070123
     ],
     [
      -83.1079336,
      42.4068923
     ],
     [
      -83.108097,
      42.4067767
     ],
     [
      -83.1082662,
      42.4066658
     ],
     [
      -83.1084409,
      42.4065596
     ],
     [
      -83.1086209,
      42.4064584
     ],
     [
      -83.1088059,
      42.4063623
     ],
     [
      -83.1090723,
      42.4062482
     ],
     [
      -83.113262,
      42.4045962
     ],
     [
      -83.1137937,
      42.4044015
     ],
     [
      -83.114205,
      42.4041638
     ],
     [
      -83.1154263,
      42.4037161
     ]
    ]
   },
   "properties": {
    "segment_id": "13",
    "phase": "under_construction",
    "phase_label": "Under construction",
    "type": "off_street_trail",
    "type_label": "Off-street trail"
   }
  },
  {
   "type": "Feature",
   "geometry": {
    "type": "LineString",
    "coordinates": [
     [
      -83.1175989,
      42.4025516
     ],
     [
      -83.1176657,
      42.4025043
     ],
     [
      -83.1177302,
      42.4024797
     ],
     [
      -83.1177977,
      42.4024603
     ],
     [
      -83.1178676,
      42.402446
     ],
     [
      -83.1179391,
      42.4024372
     ],
     [
      -83.1180115,
      42.4024339
     ],
     [
      -83.1180839,
      42.4024361
     ],
     [
      -83.1181556,
      42.4024439
     ],
     [
      -83.1182362,
      42.4024507
     ],
     [
      -83.1183172,
      42.4024523
     ],
     [
      -83.1183982,
      42.4024485
     ],
     [
      -83.1184784,
      42.4024395
     ],
     [
      -83.1185572,
      42.4024253
     ],
     [
      -83.118634,
      42.4024061
     ],
     [
      -83.1187083,
      42.4023819
     ],
     [
      -83.1264224,
      42.399589
     ],
     [
      -83.1316708,
      42.3976884
     ],
     [
      -83.1349179,
      42.3965124
     ],
     [
      -83.1369194,
      42.3957874
     ],
     [
      -83.1371669,
      42.3956897
     ],
     [
      -83.1374108,
      42.3955872
     ],
     [
      -83.1376511,
      42.3954801
     ],
     [
      -83.1378875,
      42.3953684
     ],
     [
      -83.1380395,
      42.3952814
     ],
     [
      -83.1381966,
      42.3951997
     ],
     [
      -83.1383587,
      42.3951234
     ],
     [
      -83.1385252,
      42.3950527
     ],
     [
      -83.138696,
      42.3949877
     ],
     [
      -83.1388706,
      42.3949285
     ],
     [
      -83.1396745,
      42.3946414
     ]
    ]
   },
   "properties": {
    "segment_id": "18",
    "phase": "under_construction",
    "phase_label": "Under construction",
    "type": "off_street_trail",
    "type_label": "Off-street trail"
   }
  },
  {
   "type": "Feature",
   "geometry": {
    "type": "LineString",
    "coordinates": [
     [
      -83.1484933,
      42.3915896
     ],
     [
      -83.1486743,
      42.3914125
     ],
     [
      -83.1487242,
      42.391335
     ],
     [
      -83.1488147,
      42.3911847
     ],
     [
      -83.1489002,
      42.3910277
     ],
     [
      -83.1489632,
      42.3908712
     ],
     [
      -83.1489965,
      42.3907697
     ],
     [
      -83.1490687,
      42.3905508
     ],
     [
      -83.1491172,
      42.3904031
     ],
     [
      -83.1491571,
      42.390254
     ],
     [
      -83.1491884,
      42.3901038
     ],
     [
      -83.1492485,
      42.3898091
     ],
     [
      -83.1492664,
      42.3887078
     ],
     [
      -83.1491964,
      42.3861098
     ]
    ]
   },
   "properties": {
    "segment_id": "23",
    "phase": "open",
    "phase_label": "Open",
    "type": "off_street_trail",
    "type_label": "Off-street trail"
   }
  },
  {
   "type": "Feature",
   "geometry": {
    "type": "LineString",
    "coordinates": [
     [
      -83.1491964,
      42.3861098
     ],
     [
      -83.1541503,
      42.3859931
     ]
    ]
   },
   "properties": {
    "segment_id": "24",
    "phase": "funded",
    "phase_label": "Funded",
    "type": "on_street_greenway",
    "type_label": "On-street greenway"
   }
  },
  {
   "type": "Feature",
   "geometry": {
    "type": "LineString",
    "coordinates": [
     [
      -83.1541503,
      42.3859931
     ],
     [
      -83.154149,
      42.3859047
     ],
     [
      -83.1547359,
      42.3859404
     ],
     [
      -83.1547394,
      42.3859121
     ],
     [
      -83.1545821,
      42.3858995
     ],
     [
      -83.154572,
      42.3842203
     ],
     [
      -83.1537806,
      42.384178
     ],
     [
      -83.153786,
      42.3841235
     ],
     [
      -83.1540026,
      42.3841193
     ]
    ]
   },
   "properties": {
    "segment_id": "25",
    "phase": "open",
    "phase_label": "Open",
    "type": "bridge",
    "type_label": "Bridge"
   }
  },
  {
   "type": "Feature",
   "geometry": {
    "type": "LineString",
    "coordinates": [
     [
      -83.1540026,
      42.3841193
     ],
     [
      -83.1539939,
      42.3838556
     ],
     [
      -83.1539002,
      42.3809229
     ],
     [
      -83.1488951,
      42.3810359
     ]
    ]
   },
   "properties": {
    "segment_id": "26",
    "phase": "funded",
    "phase_label": "Funded",
    "type": "on_street_greenway",
    "type_label": "On-street greenway"
   }
  },
  {
   "type": "Feature",
   "geometry": {
    "type": "LineString",
    "coordinates": [
     [
      -83.1487774,
      42.3769636
     ],
     [
      -83.1488951,
      42.3810359
     ],
     [
      -83.149017,
      42.3827647
     ],
     [
      -83.149021,
      42.3827975
     ],
     [
      -83.1490347,
      42.3828248
     ],
     [
      -83.1490545,
      42.382844
     ],
     [
      -83.1490712,
      42.3828619
     ],
     [
      -83.1490929,
      42.3828803
     ],
     [
      -83.1491267,
      42.3829022
     ],
     [
      -83.1491697,
      42.3829298
     ],
     [
      -83.1492133,
      42.3829501
     ],
     [
      -83.1492814,
      42.3829853
     ],
     [
      -83.1496315,
      42.3831643
     ]
    ]
   },
   "properties": {
    "segment_id": "28",
    "phase": "open",
    "phase_label": "Open",
    "type": "off_street_trail",
    "type_label": "Off-street trail"
   }
  },
  {
   "type": "Feature",
   "geometry": {
    "type": "LineString",
    "coordinates": [
     [
      -83.1487774,
      42.3769636
     ],
     [
      -83.1487377,
      42.3759656
     ],
     [
      -83.148654,
      42.3734995
     ],
     [
      -83.1488084,
      42.3728676
     ]
    ]
   },
   "properties": {
    "segment_id": "30",
    "phase": "open",
    "phase_label": "Open",
    "type": "off_street_trail",
    "type_label": "Off-street trail"
   }
  },
  {
   "type": "Feature",
   "geometry": {
    "type": "LineString",
    "coordinates": [
     [
      -83.1488084,
      42.3728676
     ],
     [
      -83.1505777,
      42.373563
     ],
     [
      -83.1506168,
      42.3732969
     ]
    ]
   },
   "properties": {
    "segment_id": "31",
    "phase": "open",
    "phase_label": "Open",
    "type": "on_street_greenway",
    "type_label": "On-street greenway"
   }
  },
  {
   "type": "Feature",
   "geometry": {
    "type": "LineString",
    "coordinates": [
     [
      -83.1506168,
      42.3732969
     ],
     [
      -83.1506767,
      42.3729727
     ],
     [
      -83.1512378,
      42.3716567
     ],
     [
      -83.1512807,
      42.371578
     ],
     [
      -83.1513165,
      42.3714974
     ],
     [
      -83.1513451,
      42.3714153
     ],
     [
      -83.1513664,
      42.3713319
     ],
     [
      -83.1513804,
      42.3712477
     ],
     [
      -83.1513869,
      42.371163
     ],
     [
      -83.1513859,
      42.3710782
     ],
     [
      -83.1513775,
      42.3709936
     ],
     [
      -83.1512617,
      42.3683673
     ]
    ]
   },
   "properties": {
    "segment_id": "32",
    "phase": "open",
    "phase_label": "Open",
    "type": "adjacent",
    "type_label": "Adjacent path"
   }
  },
  {
   "type": "Feature",
   "geometry": {
    "type": "LineString",
    "coordinates": [
     [
      -83.1486559,
      42.3665204
     ],
     [
      -83.1485682,
      42.3638578
     ],
     [
      -83.1477793,
      42.3632821
     ],
     [
      -83.1477209,
      42.3620371
     ],
     [
      -83.148354,
      42.36167
     ],
     [
      -83.1482786,
      42.359158
     ]
    ]
   },
   "properties": {
    "segment_id": "34",
    "phase": "open",
    "phase_label": "Open",
    "type": "off_street_trail",
    "type_label": "Off-street trail"
   }
  },
  {
   "type": "Feature",
   "geometry": {
    "type": "LineString",
    "coordinates": [
     [
      -83.1482786,
      42.359158
     ],
     [
      -83.1478129,
      42.3519193
     ],
     [
      -83.1476473,
      42.3490087
     ],
     [
      -83.1477903,
      42.3448257
     ]
    ]
   },
   "properties": {
    "segment_id": "35",
    "phase": "open",
    "phase_label": "Open",
    "type": "off_street_trail",
    "type_label": "Off-street trail"
   }
  },
  {
   "type": "Feature",
   "geometry": {
    "type": "LineString",
    "coordinates": [
     [
      -83.1343005,
      42.3164459
     ],
     [
      -83.1342354,
      42.3163397
     ],
     [
      -83.134944,
      42.316053
     ],
     [
      -83.1350684,
      42.3160033
     ],
     [
      -83.1351883,
      42.315948
     ],
     [
      -83.1353033,
      42.3158871
     ],
     [
      -83.135413,
      42.315821
     ],
     [
      -83.1355168,
      42.3157499
     ],
     [
      -83.1356143,
      42.3156741
     ],
     [
      -83.1357053,
      42.3155939
     ],
     [
      -83.1364827,
      42.314917
     ],
     [
      -83.1368354,
      42.314561
     ],
     [
      -83.1375186,
      42.313919
     ],
     [
      -83.1386283,
      42.3129541
     ],
     [
      -83.1395024,
      42.3122201
     ],
     [
      -83.1399341,
      42.3118267
     ],
     [
      -83.1401101,
      42.3116366
     ],
     [
      -83.1403012,
      42.311347
     ],
     [
      -83.1402128,
      42.310975
     ],
     [
      -83.1401171,
      42.3106814
     ],
     [
      -83.1400459,
      42.3103989
     ],
     [
      -83.140023,
      42.310104
     ],
     [
      -83.1400185,
      42.3099134
     ],
     [
      -83.14001,
      42.309556
     ],
     [
      -83.1400189,
      42.3091031
     ],
     [
      -83.1400286,
      42.308888
     ],
     [
      -83.1400339,
      42.3087719
     ],
     [
      -83.140025,
      42.308583
     ],
     [
      -83.1399927,
      42.3084175
     ],
     [
      -83.1399478,
      42.3082817
     ],
     [
      -83.1398408,
      42.3081859
     ],
     [
      -83.1397472,
      42.3081082
     ],
     [
      -83.1396013,
      42.3080443
     ],
     [
      -83.1394066,
      42.3079967
     ],
     [
      -83.1392954,
      42.3079798
     ],
     [
      -83.1391476,
      42.307985
     ],
     [
      -83.1389713,
      42.3080251
     ],
     [
      -83.1387924,
      42.3080729
     ],
     [
      -83.1385036,
      42.3080546
     ],
     [
      -83.1381027,
      42.3079554
     ],
     [
      -83.13769,
      42.3078559
     ],
     [
      -83.1374456,
      42.3078152
     ],
     [
      -83.1371063,
      42.3077948
     ],
     [
      -83.136889,
      42.307798
     ],
     [
      -83.136636,
      42.3078398
     ],
     [
      -83.136366,
      42.3078982
     ],
     [
      -83.1362023,
      42.3077107
     ],
     [
      -83.1360494,
      42.3077665
     ]
    ]
   },
   "properties": {
    "segment_id": "48",
    "phase": "funded",
    "phase_label": "Funded",
    "type": "off_street_trail",
    "type_label": "Off-street trail"
   }
  },
  {
   "type": "Feature",
   "geometry": {
    "type": "LineString",
    "coordinates": [
     [
      -83.1240771,
      42.3122937
     ],
     [
      -83.1204587,
      42.3072846
     ],
     [
      -83.1202825,
      42.3064007
     ],
     [
      -83.1184312,
      42.3038511
     ]
    ]
   },
   "properties": {
    "segment_id": "52",
    "phase": "unfunded",
    "phase_label": "Unfunded",
    "type": "on_street_greenway",
    "type_label": "On-street greenway"
   }
  },
  {
   "type": "Feature",
   "geometry": {
    "type": "LineString",
    "coordinates": [
     [
      -83.1184312,
      42.3038511
     ],
     [
      -83.1172862,
      42.3042934
     ],
     [
      -83.1161789,
      42.3047361
     ],
     [
      -83.1150545,
      42.3051907
     ],
     [
      -83.1142402,
      42.3040507
     ]
    ]
   },
   "properties": {
    "segment_id": "53",
    "phase": "unfunded",
    "phase_label": "Unfunded",
    "type": "adjacent",
    "type_label": "Adjacent path"
   }
  },
  {
   "type": "Feature",
   "geometry": {
    "type": "LineString",
    "coordinates": [
     [
      -83.1142402,
      42.3040507
     ],
     [
      -83.1109057,
      42.2994518
     ],
     [
      -83.1106485,
      42.2992614
     ],
     [
      -83.1103891,
      42.2991344
     ],
     [
      -83.109982,
      42.2990418
     ],
     [
      -83.1094308,
      42.2989712
     ],
     [
      -83.1089593,
      42.2989394
     ],
     [
      -83.1087334,
      42.2988882
     ],
     [
      -83.1085376,
      42.2988065
     ],
     [
      -83.1083616,
      42.298707
     ],
     [
      -83.1082329,
      42.29859
     ],
     [
      -83.1072954,
      42.2972907
     ],
     [
      -83.1072323,
      42.2971307
     ],
     [
      -83.107221,
      42.2969388
     ],
     [
      -83.107247,
      42.2967553
     ],
     [
      -83.1072709,
      42.2966808
     ],
     [
      -83.1072954,
      42.2966118
     ],
     [
      -83.1073305,
      42.2965266
     ],
     [
      -83.107352,
      42.2964622
     ],
     [
      -83.107364,
      42.2964244
     ],
     [
      -83.1073697,
      42.2963782
     ],
     [
      -83.1073645,
      42.2962369
     ],
     [
      -83.1073447,
      42.2961133
     ],
     [
      -83.1072977,
      42.2959859
     ],
     [
      -83.1072209,
      42.2958602
     ],
     [
      -83.1067353,
      42.2952624
     ],
     [
      -83.1012102,
      42.2976601
     ],
     [
      -83.0979062,
      42.3011836
     ],
     [
      -83.0936254,
      42.3028765
     ],
     [
      -83.0980027,
      42.3089386
     ],
     [
      -83.0960558,
      42.3097833
     ],
     [
      -83.0973866,
      42.3116232
     ]
    ]
   },
   "properties": {
    "segment_id": "55",
    "phase": "under_construction",
    "phase_label": "Under construction",
    "type": "adjacent",
    "type_label": "Adjacent path"
   }
  },
  {
   "type": "Feature",
   "geometry": {
    "type": "LineString",
    "coordinates": [
     [
      -83.0973866,
      42.3116232
     ],
     [
      -83.0914503,
      42.3139712
     ],
     [
      -83.0912535,
      42.3140504
     ],
     [
      -83.0912229,
      42.3140663
     ],
     [
      -83.0912017,
      42.314087
     ]
    ]
   },
   "properties": {
    "segment_id": "56",
    "phase": "funded",
    "phase_label": "Funded",
    "type": "adjacent",
    "type_label": "Adjacent path"
   }
  },
  {
   "type": "Feature",
   "geometry": {
    "type": "LineString",
    "coordinates": [
     [
      -83.0812353,
      42.3119602
     ],
     [
      -83.0848612,
      42.3169507
     ],
     [
      -83.0866405,
      42.3194233
     ],
     [
      -83.0884998,
      42.3220066
     ]
    ]
   },
   "properties": {
    "segment_id": "57",
    "phase": "open",
    "phase_label": "Open",
    "type": "on_street_greenway",
    "type_label": "On-street greenway"
   }
  },
  {
   "type": "Feature",
   "geometry": {
    "type": "LineString",
    "coordinates": [
     [
      -83.0884998,
      42.3220066
     ],
     [
      -83.0859765,
      42.322991
     ]
    ]
   },
   "properties": {
    "segment_id": "58",
    "phase": "unfunded",
    "phase_label": "Unfunded",
    "type": "shared_street",
    "type_label": "Shared street"
   }
  },
  {
   "type": "Feature",
   "geometry": {
    "type": "LineString",
    "coordinates": [
     [
      -83.0859765,
      42.322991
     ],
     [
      -83.084752,
      42.3233683
     ],
     [
      -83.0840667,
      42.3235795
     ]
    ]
   },
   "properties": {
    "segment_id": "59",
    "phase": "open",
    "phase_label": "Open",
    "type": "shared_street",
    "type_label": "Shared street"
   }
  },
  {
   "type": "Feature",
   "geometry": {
    "type": "LineString",
    "coordinates": [
     [
      -83.0840667,
      42.3235795
     ],
     [
      -83.0839814,
      42.3236132
     ],
     [
      -83.0839944,
      42.3237841
     ],
     [
      -83.0839665,
      42.323787
     ],
     [
      -83.083922,
      42.3236601
     ],
     [
      -83.0818124,
      42.3244989
     ],
     [
      -83.0814257,
      42.3243898
     ]
    ]
   },
   "properties": {
    "segment_id": "60",
    "phase": "open",
    "phase_label": "Open",
    "type": "bridge",
    "type_label": "Bridge"
   }
  },
  {
   "type": "Feature",
   "geometry": {
    "type": "LineString",
    "coordinates": [
     [
      -83.0814257,
      42.3243898
     ],
     [
      -83.0804997,
      42.3246734
     ],
     [
      -83.0795046,
      42.3249781
     ],
     [
      -83.0779844,
      42.3254437
     ],
     [
      -83.0760374,
      42.32604
     ]
    ]
   },
   "properties": {
    "segment_id": "61",
    "phase": "unfunded",
    "phase_label": "Unfunded",
    "type": "on_street_greenway",
    "type_label": "On-street greenway"
   }
  },
  {
   "type": "Feature",
   "geometry": {
    "type": "LineString",
    "coordinates": [
     [
      -83.0760374,
      42.32604
     ],
     [
      -83.0741372,
      42.3266159
     ]
    ]
   },
   "properties": {
    "segment_id": "62",
    "phase": "open",
    "phase_label": "Open",
    "type": "on_street_greenway",
    "type_label": "On-street greenway"
   }
  },
  {
   "type": "Feature",
   "geometry": {
    "type": "LineString",
    "coordinates": [
     [
      -83.0741372,
      42.3266159
     ],
     [
      -83.0740488,
      42.326489
     ],
     [
      -83.0740067,
      42.3264286
     ],
     [
      -83.0737364,
      42.3263035
     ],
     [
      -83.0732381,
      42.3261139
     ],
     [
      -83.0725085,
      42.3258361
     ],
     [
      -83.0705592,
      42.3250661
     ],
     [
      -83.0699766,
      42.324836
     ],
     [
      -83.0696018,
      42.3246886
     ],
     [
      -83.0693798,
      42.3246013
     ],
     [
      -83.0689683,
      42.3243231
     ],
     [
      -83.0687888,
      42.3242254
     ],
     [
      -83.0684432,
      42.3240871
     ],
     [
      -83.0674682,
      42.3237385
     ],
     [
      -83.0671962,
      42.3236413
     ],
     [
      -83.0659844,
      42.3231919
     ],
     [
      -83.0656581,
      42.3231314
     ],
     [
      -83.0655372,
      42.323105
     ],
     [
      -83.0648377,
      42.3228852
     ],
     [
      -83.0641701,
      42.3226673
     ],
     [
      -83.0638676,
      42.3225565
     ],
     [
      -83.0638025,
      42.3225074
     ],
     [
      -83.0636993,
      42.322397
     ],
     [
      -83.0635768,
      42.3222134
     ]
    ]
   },
   "properties": {
    "segment_id": "63",
    "phase": "open",
    "phase_label": "Open",
    "type": "off_street_trail",
    "type_label": "Off-street trail"
   }
  },
  {
   "type": "Feature",
   "geometry": {
    "type": "LineString",
    "coordinates": [
     [
      -83.0504636,
      42.3736908
     ],
     [
      -83.0506952,
      42.3737445
     ],
     [
      -83.0508123,
      42.3737896
     ],
     [
      -83.0509292,
      42.3738396
     ],
     [
      -83.0510231,
      42.3738942
     ],
     [
      -83.0511072,
      42.373951
     ],
     [
      -83.0511826,
      42.3740232
     ],
     [
      -83.0543352,
      42.3787845
     ],
     [
      -83.0549924,
      42.3797915
     ],
     [
      -83.0550559,
      42.3798914
     ],
     [
      -83.0551108,
      42.3799941
     ],
     [
      -83.055157,
      42.3800991
     ],
     [
      -83.0551943,
      42.380206
     ],
     [
      -83.0552226,
      42.3803145
     ],
     [
      -83.0552417,
      42.380424
     ],
     [
      -83.0552515,
      42.3805342
     ],
     [
      -83.0552521,
      42.3806447
     ],
     [
      -83.0552434,
      42.3807549
     ],
     [
      -83.0552254,
      42.3808646
     ],
     [
      -83.0551983,
      42.3809732
     ],
     [
      -83.0551621,
      42.3810803
     ],
     [
      -83.055117,
      42.3811856
     ],
     [
      -83.0550631,
      42.3812885
     ],
     [
      -83.0550006,
      42.3813888
     ],
     [
      -83.0549299,
      42.381486
     ],
     [
      -83.0548511,
      42.3815798
     ],
     [
      -83.0527678,
      42.3846102
     ],
     [
      -83.0526965,
      42.3847362
     ],
     [
      -83.0526171,
      42.3848594
     ],
     [
      -83.0525295,
      42.3849796
     ],
     [
      -83.0524342,
      42.3850965
     ],
     [
      -83.0523312,
      42.3852097
     ],
     [
      -83.0522208,
      42.3853191
     ],
     [
      -83.0521034,
      42.3854243
     ],
     [
      -83.0519791,
      42.3855252
     ],
     [
      -83.0518484,
      42.3856214
     ],
     [
      -83.0517114,
      42.3857127
     ],
     [
      -83.0515685,
      42.385799
     ],
     [
      -83.0514201,
      42.38588
     ],
     [
      -83.0512666,
      42.3859554
     ],
     [
      -83.0511082,
      42.3860252
     ],
     [
      -83.0509454,
      42.3860892
     ],
     [
      -83.0507786,
      42.3861472
     ]
    ]
   },
   "properties": {
    "segment_id": "65",
    "phase": "funded",
    "phase_label": "Funded",
    "type": "adjacent",
    "type_label": "Adjacent path"
   }
  },
  {
   "type": "Feature",
   "geometry": {
    "type": "LineString",
    "coordinates": [
     [
      -83.0598472,
      42.3998175
     ],
     [
      -83.0642975,
      42.4063473
     ]
    ]
   },
   "properties": {
    "segment_id": "66",
    "phase": "unfunded",
    "phase_label": "Unfunded",
    "type": "on_street_greenway",
    "type_label": "On-street greenway"
   }
  },
  {
   "type": "Feature",
   "geometry": {
    "type": "LineString",
    "coordinates": [
     [
      -83.1396745,
      42.3946414
     ],
     [
      -83.1420848,
      42.3939239
     ],
     [
      -83.1472084,
      42.3919474
     ],
     [
      -83.1472522,
      42.3919873
     ],
     [
      -83.147295,
      42.3920264
     ],
     [
      -83.1473398,
      42.3920609
     ],
     [
      -83.1473983,
      42.3920896
     ],
     [
      -83.147456,
      42.3921014
     ],
     [
      -83.1475283,
      42.3920999
     ],
     [
      -83.1476106,
      42.3920844
     ],
     [
      -83.1477157,
      42.3920582
     ],
     [
      -83.1478621,
      42.3920064
     ],
     [
      -83.1479793,
      42.3919592
     ],
     [
      -83.1481032,
      42.3918921
     ],
     [
      -83.1482065,
      42.391829
     ],
     [
      -83.1482839,
      42.3917649
     ],
     [
      -83.148429,
      42.3916524
     ],
     [
      -83.1484933,
      42.3915896
     ]
    ]
   },
   "properties": {
    "segment_id": "71",
    "phase": "under_construction",
    "phase_label": "Under construction",
    "type": "off_street_trail",
    "type_label": "Off-street trail"
   }
  },
  {
   "type": "Feature",
   "geometry": {
    "type": "LineString",
    "coordinates": [
     [
      -83.1512617,
      42.3683673
     ],
     [
      -83.149873,
      42.3683723
     ],
     [
      -83.1487057,
      42.3676427
     ],
     [
      -83.1486559,
      42.3665204
     ]
    ]
   },
   "properties": {
    "segment_id": "73",
    "phase": "open",
    "phase_label": "Open",
    "type": "off_street_trail",
    "type_label": "Off-street trail"
   }
  },
  {
   "type": "Feature",
   "geometry": {
    "type": "LineString",
    "coordinates": [
     [
      -83.1240771,
      42.3122937
     ],
     [
      -83.1358462,
      42.3074955
     ]
    ]
   },
   "properties": {
    "segment_id": "76",
    "phase": "unfunded",
    "phase_label": "Unfunded",
    "type": "alley",
    "type_label": "Alley"
   }
  },
  {
   "type": "Feature",
   "geometry": {
    "type": "LineString",
    "coordinates": [
     [
      -83.0812353,
      42.3119602
     ],
     [
      -83.0784676,
      42.3133989
     ],
     [
      -83.0754821,
      42.3148449
     ],
     [
      -83.0726959,
      42.316292
     ],
     [
      -83.0654822,
      42.3201415
     ],
     [
      -83.0661607,
      42.3213016
     ]
    ]
   },
   "properties": {
    "segment_id": "77",
    "phase": "unfunded",
    "phase_label": "Unfunded",
    "type": "off_street_trail",
    "type_label": "Off-street trail"
   }
  },
  {
   "type": "Feature",
   "geometry": {
    "type": "LineString",
    "coordinates": [
     [
      -83.1430925,
      42.3285846
     ],
     [
      -83.1431426,
      42.328213
     ],
     [
      -83.1432319,
      42.3280017
     ],
     [
      -83.1432485,
      42.3277385
     ],
     [
      -83.1432662,
      42.3274581
     ],
     [
      -83.1432703,
      42.3272935
     ],
     [
      -83.1432387,
      42.3271558
     ],
     [
      -83.1431362,
      42.3270349
     ],
     [
      -83.1429421,
      42.3268982
     ],
     [
      -83.142384,
      42.326468
     ],
     [
      -83.1422896,
      42.3263637
     ],
     [
      -83.1422084,
      42.3262795
     ],
     [
      -83.1420563,
      42.326217
     ],
     [
      -83.1419396,
      42.3261664
     ],
     [
      -83.1417242,
      42.3259968
     ],
     [
      -83.1416631,
      42.3258618
     ],
     [
      -83.141532,
      42.3257606
     ],
     [
      -83.1413617,
      42.3257244
     ],
     [
      -83.1411544,
      42.3255816
     ],
     [
      -83.1410283,
      42.3254627
     ],
     [
      -83.1408782,
      42.3252357
     ],
     [
      -83.1406978,
      42.3250475
     ],
     [
      -83.1406292,
      42.3248751
     ],
     [
      -83.1402428,
      42.324647
     ]
    ]
   },
   "properties": {
    "segment_id": "82",
    "phase": "under_construction",
    "phase_label": "Under construction",
    "type": "off_street_trail",
    "type_label": "Off-street trail"
   }
  },
  {
   "type": "Feature",
   "geometry": {
    "type": "LineString",
    "coordinates": [
     [
      -83.1563205,
      42.3446231
     ],
     [
      -83.1508215,
      42.3387998
     ]
    ]
   },
   "properties": {
    "segment_id": "84",
    "phase": "unfunded",
    "phase_label": "Unfunded",
    "type": "adjacent",
    "type_label": "Adjacent path"
   }
  },
  {
   "type": "Feature",
   "geometry": {
    "type": "LineString",
    "coordinates": [
     [
      -83.1508215,
      42.3387998
     ],
     [
      -83.148988,
      42.3367287
     ],
     [
      -83.1464415,
      42.3332113
     ],
     [
      -83.1430925,
      42.3285846
     ]
    ]
   },
   "properties": {
    "segment_id": "85",
    "phase": "unfunded",
    "phase_label": "Unfunded",
    "type": "on_street_greenway",
    "type_label": "On-street greenway"
   }
  },
  {
   "type": "Feature",
   "geometry": {
    "type": "LineString",
    "coordinates": [
     [
      -83.1402428,
      42.324647
     ],
     [
      -83.1377184,
      42.3211585
     ],
     [
      -83.1343005,
      42.3164459
     ]
    ]
   },
   "properties": {
    "segment_id": "86",
    "phase": "unfunded",
    "phase_label": "Unfunded",
    "type": "on_street_greenway",
    "type_label": "On-street greenway"
   }
  },
  {
   "type": "Feature",
   "geometry": {
    "type": "LineString",
    "coordinates": [
     [
      -83.1477903,
      42.3448257
     ],
     [
      -83.1563205,
      42.3446231
     ]
    ]
   },
   "properties": {
    "segment_id": "211",
    "phase": "unfunded",
    "phase_label": "Unfunded",
    "type": "on_street_greenway",
    "type_label": "On-street greenway"
   }
  },
  {
   "type": "Feature",
   "geometry": {
    "type": "LineString",
    "coordinates": [
     [
      -83.0428273,
      42.3649993
     ],
     [
      -83.0462271,
      42.3702121
     ],
     [
      -83.0467973,
      42.3700198
     ],
     [
      -83.0486596,
      42.372859
     ],
     [
      -83.0496844,
      42.3725157
     ],
     [
      -83.0504636,
      42.3736908
     ]
    ]
   },
   "properties": {
    "segment_id": "212",
    "phase": "unfunded",
    "phase_label": "Unfunded",
    "type": "on_street_greenway",
    "type_label": "On-street greenway"
   }
  },
  {
   "type": "Feature",
   "geometry": {
    "type": "LineString",
    "coordinates": [
     [
      -83.0896013,
      42.314776
     ],
     [
      -83.0883839,
      42.3152466
     ],
     [
      -83.0882546,
      42.315297
     ],
     [
      -83.0881938,
      42.3153249
     ],
     [
      -83.0881207,
      42.3153656
     ],
     [
      -83.0880484,
      42.3154164
     ],
     [
      -83.0879569,
      42.31549
     ],
     [
      -83.0878283,
      42.3155998
     ],
     [
      -83.0877235,
      42.3156978
     ],
     [
      -83.0876352,
      42.3157702
     ],
     [
      -83.0875499,
      42.3158314
     ],
     [
      -83.0873725,
      42.3159376
     ],
     [
      -83.0872406,
      42.3160102
     ],
     [
      -83.0871139,
      42.3160752
     ],
     [
      -83.0848902,
      42.316991
     ]
    ]
   },
   "properties": {
    "segment_id": "213",
    "phase": "funded",
    "phase_label": "Funded",
    "type": "on_street_greenway",
    "type_label": "On-street greenway"
   }
  },
  {
   "type": "Feature",
   "geometry": {
    "type": "LineString",
    "coordinates": [
     [
      -83.1360494,
      42.3077665
     ],
     [
      -83.1348048,
      42.3060802
     ],
     [
      -83.1366835,
      42.3053541
     ],
     [
      -83.1367902,
      42.3052542
     ],
     [
      -83.1368249,
      42.3050913
     ],
     [
      -83.1369763,
      42.3043155
     ],
     [
      -83.1310491,
      42.2957841
     ]
    ]
   },
   "properties": {
    "segment_id": "214",
    "phase": "funded",
    "phase_label": "Funded",
    "type": "adjacent",
    "type_label": "Adjacent path"
   }
  },
  {
   "type": "Feature",
   "geometry": {
    "type": "LineString",
    "coordinates": [
     [
      -83.1154263,
      42.4037161
     ],
     [
      -83.1154405,
      42.403711
     ],
     [
      -83.1156319,
      42.403641
     ],
     [
      -83.1157885,
      42.4035629
     ],
     [
      -83.1159395,
      42.4034791
     ],
     [
      -83.1160847,
      42.4033896
     ],
     [
      -83.1162236,
      42.4032949
     ],
     [
      -83.1163199,
      42.4032183
     ],
     [
      -83.116422,
      42.4031458
     ],
     [
      -83.1165295,
      42.4030778
     ],
     [
      -83.116642,
      42.4030144
     ],
     [
      -83.1167592,
      42.4029558
     ],
     [
      -83.1170079,
      42.4028246
     ],
     [
      -83.1175046,
      42.4026185
     ],
     [
      -83.1175989,
      42.4025516
     ]
    ]
   },
   "properties": {
    "segment_id": "224",
    "phase": "under_construction",
    "phase_label": "Under construction",
    "type": "off_street_trail",
    "type_label": "Off-street trail"
   }
  },
  {
   "type": "Feature",
   "geometry": {
    "type": "LineString",
    "coordinates": [
     [
      -83.0591217,
      42.3238683
     ],
     [
      -83.0584557,
      42.322737
     ],
     [
      -83.0584474,
      42.3227392
     ],
     [
      -83.0563415,
      42.3233001
     ],
     [
      -83.0561433,
      42.3232348
     ],
     [
      -83.0561326,
      42.3232376
     ],
     [
      -83.0531781,
      42.3240207
     ],
     [
      -83.0531757,
      42.3240245
     ],
     [
      -83.0531745,
      42.3240248
     ],
     [
      -83.0531736,
      42.324025
     ],
     [
      -83.0530859,
      42.3241632
     ],
     [
      -83.0530842,
      42.3241658
     ],
     [
      -83.052085,
      42.3244275
     ],
     [
      -83.0518913,
      42.3240918
     ],
     [
      -83.0518848,
      42.32408
     ],
     [
      -83.0513219,
      42.3242401
     ],
     [
      -83.050597,
      42.3244501
     ],
     [
      -83.0478004,
      42.3252682
     ],
     [
      -83.0460237,
      42.3257766
     ],
     [
      -83.046006,
      42.3257818
     ],
     [
      -83.0448629,
      42.3261182
     ],
     [
      -83.0442295,
      42.3263041
     ],
     [
      -83.043947,
      42.3263872
     ],
     [
      -83.0435901,
      42.3264915
     ],
     [
      -83.0432492,
      42.3265893
     ],
     [
      -83.0425815,
      42.3267736
     ],
     [
      -83.0421552,
      42.3268958
     ],
     [
      -83.0421442,
      42.3268989
     ],
     [
      -83.0420657,
      42.327041
     ],
     [
      -83.0416082,
      42.3271619
     ],
     [
      -83.0416038,
      42.3271629
     ],
     [
      -83.0411509,
      42.3272789
     ],
     [
      -83.0410037,
      42.3273216
     ],
     [
      -83.0403015,
      42.3275071
     ],
     [
      -83.0399465,
      42.3275988
     ],
     [
      -83.0392737,
      42.3277749
     ],
     [
      -83.0386185,
      42.3279404
     ],
     [
      -83.0379719,
      42.3281175
     ],
     [
      -83.0376412,
      42.3282067
     ],
     [
      -83.0368335,
      42.3284475
     ],
     [
      -83.0356062,
      42.3288157
     ],
     [
      -83.0344851,
      42.3291492
     ],
     [
      -83.0343127,
      42.3292001
     ],
     [
      -83.0340786,
      42.3294218
     ],
     [
      -83.0337437,
      42.3295238
     ],
     [
      -83.0329816,
      42.3297528
     ],
     [
      -83.0328135,
      42.3298118
     ],
     [
      -83.0326158,
      42.329892
     ],
     [
      -83.0325583,
      42.3299153
     ],
     [
      -83.032494,
      42.3299433
     ],
     [
      -83.0324813,
      42.3299489
     ],
     [
      -83.0323974,
      42.3299855
     ],
     [
      -83.0323034,
      42.3300265
     ],
     [
      -83.0319801,
      42.3301659
     ],
     [
      -83.0319732,
      42.3301688
     ],
     [
      -83.0318937,
      42.3302021
     ],
     [
      -83.0318139,
      42.3302355
     ],
     [
      -83.0318021,
      42.3302409
     ],
     [
      -83.0316009,
      42.3303336
     ],
     [
      -83.0315115,
      42.3303755
     ],
     [
      -83.0314669,
      42.3304012
     ],
     [
      -83.0313598,
      42.330471
     ],
     [
      -83.0312928,
      42.3305256
     ],
     [
      -83.0312322,
      42.3305842
     ],
     [
      -83.0311879,
      42.330627
     ],
     [
      -83.0311276,
      42.3306725
     ],
     [
      -83.0310825,
      42.3307011
     ],
     [
      -83.0310339,
      42.3307258
     ],
     [
      -83.0310226,
      42.3307316
     ],
     [
      -83.0309587,
      42.3307573
     ],
     [
      -83.0308921,
      42.3307777
     ],
     [
      -83.0307692,
      42.3307975
     ],
     [
      -83.0306975,
      42.3308033
     ],
     [
      -83.0305745,
      42.3308198
     ],
     [
      -83.0304575,
      42.330842
     ],
     [
      -83.0304533,
      42.3308428
     ],
     [
      -83.0303913,
      42.3308581
     ],
     [
      -83.0303912,
      42.3308581
     ],
     [
      -83.0303347,
      42.3308721
     ],
     [
      -83.0302192,
      42.3309076
     ],
     [
      -83.030126,
      42.3309421
     ],
     [
      -83.0301073,
      42.330949
     ],
     [
      -83.0300928,
      42.3309554
     ],
     [
      -83.0299997,
      42.3309962
     ],
     [
      -83.0298969,
      42.331049
     ],
     [
      -83.029762,
      42.3311112
     ],
     [
      -83.0296233,
      42.3311684
     ],
     [
      -83.029481,
      42.3312207
     ],
     [
      -83.0293356,
      42.3312679
     ],
     [
      -83.0291872,
      42.3313097
     ],
     [
      -83.0290363,
      42.3313463
     ],
     [
      -83.0289635,
      42.3313611
     ],
     [
      -83.0288832,
      42.3313774
     ],
     [
      -83.0287282,
      42.3314031
     ],
     [
      -83.0286402,
      42.3314215
     ],
     [
      -83.0285541,
      42.3314443
     ],
     [
      -83.0284703,
      42.3314714
     ],
     [
      -83.0283891,
      42.3315026
     ],
     [
      -83.028918,
      42.3323223
     ],
     [
      -83.0286275,
      42.3324247
     ],
     [
      -83.0284665,
      42.3324978
     ],
     [
      -83.0283687,
      42.3325364
     ],
     [
      -83.0274106,
      42.3328682
     ],
     [
      -83.0271366,
      42.332978
     ],
     [
      -83.0265518,
      42.3331813
     ]
    ]
   },
   "properties": {
    "segment_id": "226",
    "phase": "open",
    "phase_label": "Open",
    "type": "off_street_trail",
    "type_label": "Off-street trail"
   }
  },
  {
   "type": "Feature",
   "geometry": {
    "type": "LineString",
    "coordinates": [
     [
      -83.0467342,
      42.3635362
     ],
     [
      -83.0428273,
      42.3649993
     ]
    ]
   },
   "properties": {
    "segment_id": "227",
    "phase": "unfunded",
    "phase_label": "Unfunded",
    "type": "on_street_greenway",
    "type_label": "On-street greenway"
   }
  },
  {
   "type": "Feature",
   "geometry": {
    "type": "LineString",
    "coordinates": [
     [
      -83.0912017,
      42.314087
     ],
     [
      -83.0911916,
      42.3141066
     ],
     [
      -83.0911819,
      42.3141295
     ],
     [
      -83.0911681,
      42.3141499
     ],
     [
      -83.0911417,
      42.3141738
     ],
     [
      -83.0911142,
      42.3141911
     ],
     [
      -83.0896013,
      42.314776
     ]
    ]
   },
   "properties": {
    "segment_id": "229",
    "phase": "funded",
    "phase_label": "Funded",
    "type": "adjacent",
    "type_label": "Adjacent path"
   }
  },
  {
   "type": "Feature",
   "geometry": {
    "type": "LineString",
    "coordinates": [
     [
      -83.1010111,
      42.4114325
     ],
     [
      -83.1010371,
      42.4114229
     ]
    ]
   },
   "properties": {
    "segment_id": "230",
    "phase": "under_construction",
    "phase_label": "Under construction",
    "type": "off_street_trail",
    "type_label": "Off-street trail"
   }
  },
  {
   "type": "Feature",
   "geometry": {
    "type": "LineString",
    "coordinates": [
     [
      -83.0591217,
      42.3238683
     ],
     [
      -83.0591217,
      42.3238683
     ],
     [
      -83.0595458,
      42.323695
     ],
     [
      -83.0603258,
      42.3233929
     ],
     [
      -83.0611979,
      42.3230579
     ],
     [
      -83.0620198,
      42.3227544
     ],
     [
      -83.0627678,
      42.3224613
     ],
     [
      -83.0635164,
      42.3222355
     ],
     [
      -83.0635768,
      42.3222134
     ],
     [
      -83.0640661,
      42.3220341
     ],
     [
      -83.0651989,
      42.3216219
     ],
     [
      -83.0661607,
      42.3213016
     ]
    ]
   },
   "properties": {
    "segment_id": "233",
    "phase": "open",
    "phase_label": "Open",
    "type": "on_street_greenway",
    "type_label": "On-street greenway"
   }
  }
 ]
}
