{
  "type": "FeatureCollection",
  "features": [
    {
      "type": "Feature",
      "geometry": {
        "type": "LineString",
        "coordinates": [
          [
            -83.0265518,
            42.3331813
          ],
          [
            -83.0265518,
            42.3331813
          ],
          [
            -83.0267398,
            42.3334906
          ],
          [
            -83.0268811,
            42.3337917
          ],
          [
            -83.0269133,
            42.3338389
          ],
          [
            -83.0269528,
            42.3338846
          ],
          [
            -83.0271115,
            42.3340444
          ],
          [
            -83.0271256,
            42.3340646
          ],
          [
            -83.0271301,
            42.3340887
          ],
          [
            -83.027131,
            42.3341918
          ],
          [
            -83.0271364,
            42.3342188
          ],
          [
            -83.0271492,
            42.3342374
          ],
          [
            -83.0272003,
            42.3342885
          ],
          [
            -83.0274628,
            42.3346044
          ],
          [
            -83.0274965,
            42.3346358
          ],
          [
            -83.0275765,
            42.3347102
          ],
          [
            -83.0276105,
            42.3347418
          ],
          [
            -83.0276402,
            42.3347985
          ],
          [
            -83.0276632,
            42.3348924
          ],
          [
            -83.0276771,
            42.3349491
          ],
          [
            -83.0278802,
            42.3352972
          ],
          [
            -83.0279247,
            42.3353651
          ],
          [
            -83.028751,
            42.3366166
          ],
          [
            -83.0293348,
            42.3375052
          ],
          [
            -83.0303061,
            42.3389836
          ],
          [
            -83.0327443,
            42.3426697
          ],
          [
            -83.0341144,
            42.3447467
          ],
          [
            -83.0342029,
            42.3448757
          ],
          [
            -83.0342842,
            42.3450072
          ],
          [
            -83.0343582,
            42.3451411
          ],
          [
            -83.0344247,
            42.3452771
          ],
          [
            -83.0345526,
            42.3454718
          ],
          [
            -83.0346873,
            42.345664
          ],
          [
            -83.0348286,
            42.3458535
          ],
          [
            -83.0349764,
            42.3460403
          ],
          [
            -83.0351308,
            42.3462241
          ],
          [
            -83.0352914,
            42.346405
          ],
          [
            -83.0354583,
            42.3465827
          ],
          [
            -83.0356642,
            42.3468521
          ],
          [
            -83.038231,
            42.3507611
          ],
          [
            -83.0405137,
            42.3541944
          ],
          [
            -83.0405457,
            42.3541822
          ],
          [
            -83.0406508,
            42.3543412
          ]
        ]
      },
      "properties": {
        "segment_id": "1",
        "phase": "Open",
        "type": "Off-Street"
      }
    },
    {
      "type": "Feature",
      "geometry": {
        "type": "LineString",
        "coordinates": [
          [
            -83.0406508,
            42.3543412
          ],
          [
            -83.0439318,
            42.359356
          ],
          [
            -83.0453188,
            42.3614566
          ],
          [
            -83.0467342,
            42.3635362
          ]
        ]
      },
      "properties": {
        "segment_id": "2",
        "phase": "Funded",
        "type": "Adjacent"
      }
    },
    {
      "type": "Feature",
      "geometry": {
        "type": "LineString",
        "coordinates": [
          [
            -83.0507786,
            42.3861472
          ],
          [
            -83.0557878,
            42.3937036
          ]
        ]
      },
      "properties": {
        "segment_id": "3",
        "phase": "Open",
        "type": "On-Street"
      }
    },
    {
      "type": "Feature",
      "geometry": {
        "type": "LineString",
        "coordinates": [
          [
            -83.0557878,
            42.3937036
          ],
          [
            -83.0562527,
            42.3935333
          ],
          [
            -83.0602684,
            42.3996529
          ],
          [
            -83.0598472,
            42.3998175
          ]
        ]
      },
      "properties": {
        "segment_id": "4",
        "phase": "Unfunded",
        "type": "Alley"
      }
    },
    {
      "type": "Feature",
      "geometry": {
        "type": "LineString",
        "coordinates": [
          [
            -83.0642975,
            42.4063473
          ],
          [
            -83.0726063,
            42.4185355
          ]
        ]
      },
      "properties": {
        "segment_id": "5",
        "phase": "Open",
        "type": "On-Street"
      }
    },
    {
      "type": "Feature",
      "geometry": {
        "type": "LineString",
        "coordinates": [
          [
            -83.0726063,
            42.4185355
          ],
          [
            -83.0750647,
            42.4185509
          ],
          [
            -83.0818601,
            42.4160491
          ]
        ]
      },
      "properties": {
        "segment_id": "6",
        "phase": "Under Construction",
        "type": "Off-Street"
      }
    },
    {
      "type": "Feature",
      "geometry": {
        "type": "LineString",
        "coordinates": [
          [
            -83.0818601,
            42.4160491
          ],
          [
            -83.0825476,
            42.4158393
          ],
          [
            -83.084506,
            42.4151295
          ],
          [
            -83.0859442,
            42.4148901
          ],
          [
            -83.0867454,
            42.4149623
          ],
          [
            -83.087054,
            42.4149741
          ],
          [
            -83.0896134,
            42.4151859
          ],
          [
            -83.0897805,
            42.4151982
          ],
          [
            -83.0899482,
            42.4152041
          ],
          [
            -83.0901162,
            42.4152034
          ],
          [
            -83.0902838,
            42.4151963
          ],
          [
            -83.0904507,
            42.4151827
          ],
          [
            -83.0906164,
            42.4151626
          ],
          [
            -83.0907805,
            42.4151362
          ],
          [
            -83.0909425,
            42.4151034
          ],
          [
            -83.091102,
            42.4150645
          ],
          [
            -83.0912585,
            42.4150194
          ],
          [
            -83.0914116,
            42.4149683
          ],
          [
            -83.0921275,
            42.4147084
          ],
          [
            -83.1010111,
            42.4114325
          ]
        ]
      },
      "properties": {
        "segment_id": "7",
        "phase": "Funded",
        "type": "Off-Street"
      }
    },
    {
      "type": "Feature",
      "geometry": {
        "type": "LineString",
        "coordinates": [
          [
            -83.1010371,
            42.4114229
          ],
          [
            -83.1034203,
            42.4105292
          ],
          [
            -83.103635,
            42.4104482
          ],
          [
            -83.1038455,
            42.4103615
          ],
          [
            -83.1040516,
            42.410269
          ],
          [
            -83.104253,
            42.410171
          ],
          [
            -83.1044493,
            42.4100676
          ],
          [
            -83.1046064,
            42.4100011
          ],
          [
            -83.1047592,
            42.4099293
          ],
          [
            -83.1049073,
            42.4098523
          ],
          [
            -83.1050504,
            42.4097703
          ],
          [
            -83.1051882,
            42.4096834
          ],
          [
            -83.1053205,
            42.4095919
          ],
          [
            -83.1054468,
            42.4094959
          ],
          [
            -83.105567,
            42.4093957
          ],
          [
            -83.1056807,
            42.4092914
          ],
          [
            -83.1057878,
            42.4091834
          ],
          [
            -83.106434,
            42.4084513
          ],
          [
            -83.1069687,
            42.4078166
          ],
          [
            -83.1070859,
            42.4076735
          ],
          [
            -83.1072103,
            42.4075338
          ],
          [
            -83.1073418,
            42.4073976
          ],
          [
            -83.10748,
            42.4072652
          ],
          [
            -83.1076248,
            42.4071367
          ],
          [
            -83.1077761,
            42.4070123
          ],
          [
            -83.1079336,
            42.4068923
          ],
          [
            -83.108097,
            42.4067767
          ],
          [
            -83.1082662,
            42.4066658
          ],
          [
            -83.1084409,
            42.4065596
          ],
          [
            -83.1086209,
            42.4064584
          ],
          [
            -83.1088059,
            42.4063623
          ],
          [
            -83.1090723,
            42.4062482
          ],
          [
            -83.113262,
            42.4045962
          ],
          [
            -83.1137937,
            42.4044015
          ],
          [
            -83.114205,
            42.4041638
          ],
          [
            -83.1154263,
            42.4037161
          ]
        ]
      },
      "properties": {
        "segment_id": "8",
        "phase": "Under Construction",
        "type": "Off-Street"
      }
    },
    {
      "type": "Feature",
      "geometry": {
        "type": "LineString",
        "coordinates": [
          [
            -83.1484933,
            42.3915896
          ],
          [
            -83.1486743,
            42.3914125
          ],
          [
            -83.1487242,
            42.391335
          ],
          [
            -83.1488147,
            42.3911847
          ],
          [
            -83.1489002,
            42.3910277
          ],
          [
            -83.1489632,
            42.3908712
          ],
          [
            -83.1489965,
            42.3907697
          ],
          [
            -83.1490687,
            42.3905508
          ],
          [
            -83.1491172,
            42.3904031
          ],
          [
            -83.1491571,
            42.390254
          ],
          [
            -83.1491884,
            42.3901038
          ],
          [
            -83.1492485,
            42.3898091
          ],
          [
            -83.1492664,
            42.3887078
          ],
          [
            -83.1491964,
            42.3861098
          ]
        ]
      },
      "properties": {
        "segment_id": "10",
        "phase": "Open",
        "type": "Off-Street"
      }
    },
    {
      "type": "Feature",
      "geometry": {
        "type": "LineString",
        "coordinates": [
          [
            -83.1491964,
            42.3861098
          ],
          [
            -83.1541503,
            42.3859931
          ]
        ]
      },
      "properties": {
        "segment_id": "11",
        "phase": "Funded",
        "type": "On-Street"
      }
    },
    {
      "type": "Feature",
      "geometry": {
        "type": "LineString",
        "coordinates": [
          [
            -83.1541503,
            42.3859931
          ],
          [
            -83.154149,
            42.3859047
          ],
          [
            -83.1547359,
            42.3859404
          ],
          [
            -83.1547394,
            42.3859121
          ],
          [
            -83.1545821,
            42.3858995
          ],
          [
            -83.154572,
            42.3842203
          ],
          [
            -83.1537806,
            42.384178
          ],
          [
            -83.153786,
            42.3841235
          ],
          [
            -83.1540026,
            42.3841193
          ]
        ]
      },
      "properties": {
        "segment_id": "12",
        "phase": "Open",
        "type": "Bridge"
      }
    },
    {
      "type": "Feature",
      "geometry": {
        "type": "LineString",
        "coordinates": [
          [
            -83.1506168,
            42.3732969
          ],
          [
            -83.1506767,
            42.3729727
          ],
          [
            -83.1512378,
            42.3716567
          ],
          [
            -83.1512807,
            42.371578
          ],
          [
            -83.1513165,
            42.3714974
          ],
          [
            -83.1513451,
            42.3714153
          ],
          [
            -83.1513664,
            42.3713319
          ],
          [
            -83.1513804,
            42.3712477
          ],
          [
            -83.1513869,
            42.371163
          ],
          [
            -83.1513859,
            42.3710782
          ],
          [
            -83.1513775,
            42.3709936
          ],
          [
            -83.1512617,
            42.3683673
          ]
        ]
      },
      "properties": {
        "segment_id": "17",
        "phase": "Open",
        "type": "Adjacent"
      }
    },
    {
      "type": "Feature",
      "geometry": {
        "type": "LineString",
        "coordinates": [
          [
            -83.1240771,
            42.3122937
          ],
          [
            -83.1204587,
            42.3072846
          ],
          [
            -83.1202825,
            42.3064007
          ],
          [
            -83.1184312,
            42.3038511
          ]
        ]
      },
      "properties": {
        "segment_id": "21",
        "phase": "Unfunded",
        "type": "On-Street"
      }
    },
    {
      "type": "Feature",
      "geometry": {
        "type": "LineString",
        "coordinates": [
          [
            -83.1184312,
            42.3038511
          ],
          [
            -83.1172862,
            42.3042934
          ],
          [
            -83.1161789,
            42.3047361
          ],
          [
            -83.1150545,
            42.3051907
          ],
          [
            -83.1142402,
            42.3040507
          ]
        ]
      },
      "properties": {
        "segment_id": "22",
        "phase": "Unfunded",
        "type": "Adjacent"
      }
    },
    {
      "type": "Feature",
      "geometry": {
        "type": "LineString",
        "coordinates": [
          [
            -83.0973866,
            42.3116232
          ],
          [
            -83.0914503,
            42.3139712
          ],
          [
            -83.0912535,
            42.3140504
          ],
          [
            -83.0912229,
            42.3140663
          ],
          [
            -83.0912017,
            42.314087
          ]
        ]
      },
      "properties": {
        "segment_id": "24",
        "phase": "Funded",
        "type": "Adjacent"
      }
    },
    {
      "type": "Feature",
      "geometry": {
        "type": "LineString",
        "coordinates": [
          [
            -83.0884998,
            42.3220066
          ],
          [
            -83.0859765,
            42.322991
          ]
        ]
      },
      "properties": {
        "segment_id": "26",
        "phase": "Unfunded",
        "type": "Shared street"
      }
    },
    {
      "type": "Feature",
      "geometry": {
        "type": "LineString",
        "coordinates": [
          [
            -83.0859765,
            42.322991
          ],
          [
            -83.084752,
            42.3233683
          ],
          [
            -83.0840667,
            42.3235795
          ]
        ]
      },
      "properties": {
        "segment_id": "27",
        "phase": "Open",
        "type": "Shared street"
      }
    },
    {
      "type": "Feature",
      "geometry": {
        "type": "LineString",
        "coordinates": [
          [
            -83.0814257,
            42.3243898
          ],
          [
            -83.0804997,
            42.3246734
          ],
          [
            -83.0795046,
            42.3249781
          ],
          [
            -83.0779844,
            42.3254437
          ],
          [
            -83.0760374,
            42.32604
          ]
        ]
      },
      "properties": {
        "segment_id": "29",
        "phase": "Unfunded",
        "type": "On-Street"
      }
    },
    {
      "type": "Feature",
      "geometry": {
        "type": "LineString",
        "coordinates": [
          [
            -83.0812353,
            42.3119602
          ],
          [
            -83.0784676,
            42.3133989
          ],
          [
            -83.0754821,
            42.3148449
          ],
          [
            -83.0726959,
            42.316292
          ],
          [
            -83.0654822,
            42.3201415
          ],
          [
            -83.0661607,
            42.3213016
          ]
        ]
      },
      "properties": {
        "segment_id": "37",
        "phase": "Unfunded",
        "type": "Off-Street"
      }
    },
    {
      "type": "Feature",
      "geometry": {
        "type": "LineString",
        "coordinates": [
          [
            -83.0960558,
            42.3097833
          ],
          [
            -83.0973866,
            42.3116232
          ]
        ]
      },
      "properties": {
        "segment_id": "52",
        "phase": "Under Construction",
        "type": "Adjacent"
      }
    }
  ]
}
